{
  "type": "FeatureCollection",
  "features": [
    {
      "type": "Feature",
      "properties": {
        "norad_id": 66683,
        "name": "TRANSPORTER-15T",
        "group": "last-30-days",
        "lat": 82.391685007982,
        "lon": -9.675702148990732,
        "alt_km": 510.272826081522,
        "timestamp": "2025-12-22T23:36:19.409793+00:00",
        "meta_object_name": "TRANSPORTER-15T",
        "meta_object_id": "2025-276T",
        "meta_epoch": "2025-12-22T12:08:06.781056",
        "meta_mean_motion": 15.17011936,
        "meta_eccentricity": 0.00047243,
        "meta_inclination": 97.4453,
        "meta_ra_of_asc_node": 68.0946,
        "meta_arg_of_pericenter": 242.7049,
        "meta_mean_anomaly": 117.3703,
        "meta_ephemeris_type": 0,
        "meta_classification_type": "U",
        "meta_norad_cat_id": 66683,
        "meta_element_set_no": 999,
        "meta_rev_at_epoch": 360,
        "meta_bstar": 0.00056793752,
        "meta_mean_motion_dot": 0.00011171,
        "meta_mean_motion_ddot": 0,
        "tle_line1": "1 66683U 25276T   25356.50563404  .00011171  00000+0  56794-3 0  9993",
        "tle_line2": "2 66683  97.4453  68.0946 0004724 242.7049 117.3703 15.17011936  3606"
      },
      "geometry": {
        "type": "Point",
        "coordinates": [
          -9.675702148990732,
          82.391685007982
        ]
      }
    },
    {
      "type": "Feature",
      "properties": {
        "norad_id": 66684,
        "name": "TRANSPORTER-15U",
        "group": "last-30-days",
        "lat": 72.61030514485212,
        "lon": -86.73288392357432,
        "alt_km": 509.20123023432643,
        "timestamp": "2025-12-22T23:36:19.409802+00:00",
        "meta_object_name": "TRANSPORTER-15U",
        "meta_object_id": "2025-276U",
        "meta_epoch": "2025-12-22T12:03:41.226336",
        "meta_mean_motion": 15.17302917,
        "meta_eccentricity": 0.000455,
        "meta_inclination": 97.4475,
        "meta_ra_of_asc_node": 68.1059,
        "meta_arg_of_pericenter": 242.0004,
        "meta_mean_anomaly": 118.077,
        "meta_ephemeris_type": 0,
        "meta_classification_type": "U",
        "meta_norad_cat_id": 66684,
        "meta_element_set_no": 999,
        "meta_rev_at_epoch": 360,
        "meta_bstar": 0.00067357622,
        "meta_mean_motion_dot": 0.00013375,
        "meta_mean_motion_ddot": 0,
        "tle_line1": "1 66684U 25276U   25356.50256049  .00013375  00000+0  67358-3 0  9994",
        "tle_line2": "2 66684  97.4475  68.1059 0004550 242.0004 118.0770 15.17302917  3602"
      },
      "geometry": {
        "type": "Point",
        "coordinates": [
          -86.73288392357432,
          72.61030514485212
        ]
      }
    },
    {
      "type": "Feature",
      "properties": {
        "norad_id": 66685,
        "name": "TRANSPORTER-15V",
        "group": "last-30-days",
        "lat": 65.93051355305683,
        "lon": -94.41922673022971,
        "alt_km": 509.37028279248534,
        "timestamp": "2025-12-22T23:36:19.409813+00:00",
        "meta_object_name": "TRANSPORTER-15V",
        "meta_object_id": "2025-276V",
        "meta_epoch": "2025-12-22T10:26:54.385152",
        "meta_mean_motion": 15.17449739,
        "meta_eccentricity": 0.00040727,
        "meta_inclination": 97.4421,
        "meta_ra_of_asc_node": 68.0263,
        "meta_arg_of_pericenter": 258.8161,
        "meta_mean_anomaly": 101.2615,
        "meta_ephemeris_type": 0,
        "meta_classification_type": "U",
        "meta_norad_cat_id": 66685,
        "meta_element_set_no": 999,
        "meta_rev_at_epoch": 359,
        "meta_bstar": 0.00073745967,
        "meta_mean_motion_dot": 0.00014714,
        "meta_mean_motion_ddot": 0,
        "tle_line1": "1 66685U 25276V   25356.43535168  .00014714  00000+0  73746-3 0  9995",
        "tle_line2": "2 66685  97.4421  68.0263 0004072 258.8161 101.2615 15.17449739  3592"
      },
      "geometry": {
        "type": "Point",
        "coordinates": [
          -94.41922673022971,
          65.93051355305683
        ]
      }
    },
    {
      "type": "Feature",
      "properties": {
        "norad_id": 66686,
        "name": "TRANSPORTER-15W",
        "group": "last-30-days",
        "lat": 82.5126220302487,
        "lon": -27.15339653676094,
        "alt_km": 511.0413381890203,
        "timestamp": "2025-12-22T23:36:19.409830+00:00",
        "meta_object_name": "TRANSPORTER-15W",
        "meta_object_id": "2025-276W",
        "meta_epoch": "2025-12-22T12:07:09.330240",
        "meta_mean_motion": 15.16362121,
        "meta_eccentricity": 0.00011685,
        "meta_inclination": 97.4454,
        "meta_ra_of_asc_node": 68.097,
        "meta_arg_of_pericenter": 296.6445,
        "meta_mean_anomaly": 63.4668,
        "meta_ephemeris_type": 0,
        "meta_classification_type": "U",
        "meta_norad_cat_id": 66686,
        "meta_element_set_no": 999,
        "meta_rev_at_epoch": 360,
        "meta_bstar": -0.017745672,
        "meta_mean_motion_dot": -0.00329034,
        "meta_mean_motion_ddot": 0,
        "tle_line1": "1 66686U 25276W   25356.50496910 -.00329034  00000+0 -17746-1 0  9997",
        "tle_line2": "2 66686  97.4454  68.0970 0001168 296.6445  63.4668 15.16362121  3609"
      },
      "geometry": {
        "type": "Point",
        "coordinates": [
          -27.15339653676094,
          82.5126220302487
        ]
      }
    },
    {
      "type": "Feature",
      "properties": {
        "norad_id": 66687,
        "name": "TRANSPORTER-15X",
        "group": "last-30-days",
        "lat": 62.545673230596556,
        "lon": 53.967964308139656,
        "alt_km": 504.16536132179954,
        "timestamp": "2025-12-22T23:36:19.409841+00:00",
        "meta_object_name": "TRANSPORTER-15X",
        "meta_object_id": "2025-276X",
        "meta_epoch": "2025-12-22T13:49:35.317344",
        "meta_mean_motion": 15.16691886,
        "meta_eccentricity": 0.00082047,
        "meta_inclination": 97.4388,
        "meta_ra_of_asc_node": 68.1333,
        "meta_arg_of_pericenter": 55.6819,
        "meta_mean_anomaly": 304.519,
        "meta_ephemeris_type": 0,
        "meta_classification_type": "U",
        "meta_norad_cat_id": 66687,
        "meta_element_set_no": 999,
        "meta_rev_at_epoch": 361,
        "meta_bstar": 0.00069289714,
        "meta_mean_motion_dot": 0.00013531,
        "meta_mean_motion_ddot": 0,
        "tle_line1": "1 66687U 25276X   25356.57610321  .00013531  00000+0  69290-3 0  9992",
        "tle_line2": "2 66687  97.4388  68.1333 0008204  55.6819 304.5190 15.16691886  3619"
      },
      "geometry": {
        "type": "Point",
        "coordinates": [
          53.967964308139656,
          62.545673230596556
        ]
      }
    },
    {
      "type": "Feature",
      "properties": {
        "norad_id": 66688,
        "name": "TRANSPORTER-15Y",
        "group": "last-30-days",
        "lat": 79.13467116162991,
        "lon": -68.50319019533426,
        "alt_km": 509.5597950192232,
        "timestamp": "2025-12-22T23:36:19.409852+00:00",
        "meta_object_name": "TRANSPORTER-15Y",
        "meta_object_id": "2025-276Y",
        "meta_epoch": "2025-12-22T12:05:38.840064",
        "meta_mean_motion": 15.17072299,
        "meta_eccentricity": 0.00037294,
        "meta_inclination": 97.4435,
        "meta_ra_of_asc_node": 68.0926,
        "meta_arg_of_pericenter": 249.9534,
        "meta_mean_anomaly": 110.1298,
        "meta_ephemeris_type": 0,
        "meta_classification_type": "U",
        "meta_norad_cat_id": 66688,
        "meta_element_set_no": 999,
        "meta_rev_at_epoch": 360,
        "meta_bstar": 0.00055604231,
        "meta_mean_motion_dot": 0.00010953,
        "meta_mean_motion_ddot": 0,
        "tle_line1": "1 66688U 25276Y   25356.50392176  .00010953  00000+0  55604-3 0  9990",
        "tle_line2": "2 66688  97.4435  68.0926 0003729 249.9534 110.1298 15.17072299  3600"
      },
      "geometry": {
        "type": "Point",
        "coordinates": [
          -68.50319019533426,
          79.13467116162991
        ]
      }
    },
    {
      "type": "Feature",
      "properties": {
        "norad_id": 66689,
        "name": "TRANSPORTER-15Z",
        "group": "last-30-days",
        "lat": 61.72338997238365,
        "lon": -97.36654387388782,
        "alt_km": 510.19722727572935,
        "timestamp": "2025-12-22T23:36:19.409862+00:00",
        "meta_object_name": "TRANSPORTER-15Z",
        "meta_object_id": "2025-276Z",
        "meta_epoch": "2025-12-22T05:40:55.630272",
        "meta_mean_motion": 15.1740924,
        "meta_eccentricity": 0.00047849,
        "meta_inclination": 97.4421,
        "meta_ra_of_asc_node": 67.8358,
        "meta_arg_of_pericenter": 283.8405,
        "meta_mean_anomaly": 76.2296,
        "meta_ephemeris_type": 0,
        "meta_classification_type": "U",
        "meta_norad_cat_id": 66689,
        "meta_element_set_no": 999,
        "meta_rev_at_epoch": 356,
        "meta_bstar": 0.0076723241,
        "meta_mean_motion_dot": 0.00156546,
        "meta_mean_motion_ddot": 0,
        "tle_line1": "1 66689U 25276Z   25356.23675498  .00156546  00000+0  76723-2 0  9995",
        "tle_line2": "2 66689  97.4421  67.8358 0004784 283.8405  76.2296 15.17409240  3563"
      },
      "geometry": {
        "type": "Point",
        "coordinates": [
          -97.36654387388782,
          61.72338997238365
        ]
      }
    }
  ]
}